NORAD_CAT_ID,OBJECT_NAME,OBJECT_TYPE,EPOCH,MEAN_MOTION,ECCENTRICITY,INCLINATION,RA_OF_ASC_NODE,ARG_OF_PERICENTER,MEAN_ANOMALY,BSTAR,MEAN_MOTION_DOT,MEAN_MOTION_DDOT,TLE_LINE0,TLE_LINE1,TLE_LINE2,SEMIMAJOR_AXIS,PERIOD,APOGEE,PERIGEE,DECAYED
51999.0,STARLINK-3667,PAYLOAD,2022-05-29 03:58:07,15.52083167,0.0019318,53.2089,101.6841,114.8941,245.4081,-0.010528,-0.00606019,0.0,0 STARLINK-3667,1 51999U 22025AV  22149.16536826 -.00606019  00000-0 -10528-1 0  9990,2 51999  53.2089 101.6841 0019318 114.8941 245.4081 15.52083167 13942,6788.781999999997,92.779,423.761,397.532,0.0
51999.0,STARLINK-3667,PAYLOAD,2022-05-29 12:00:00,15.54045693,0.0001162,53.2171,100.0239,112.5048,340.6489,-0.011821,-0.00712914,0.0,0 STARLINK-3667,1 51999U 22025AV  22149.50001157 -.00712914  00000-0 -11821-1 0  9991,2 51999  53.2171 100.0239 0001162 112.5048 340.6489 15.54045693 13998,6783.065,92.661,405.718,404.142,0.0
51999.0,STARLINK-3667,PAYLOAD,2022-05-29 14:00:01,15.53920278,0.0001333,53.2174,99.6223,114.0787,85.5326,-0.011939,-0.00716433,0.0,0 STARLINK-3667,1 51999U 22025AV  22149.58334491 -.00716433  00000-0 -11939-1 0  9999,2 51999  53.2174  99.6223 0001333 114.0787  85.5326 15.53920278  1301,6783.43,92.669,406.199,404.391,0.0
51999.0,STARLINK-3667,PAYLOAD,2022-05-29 22:00:00,15.53408691,0.0001312,53.2175,98.0192,109.0183,156.0423,-0.012101,-0.00712983,0.0,0 STARLINK-3667,1 51999U 22025AV  22149.91667824 -.00712983  00000-0 -12101-1 0  9993,2 51999  53.2175  98.0192 0001312 109.0183 156.0423 15.53408691  1303,6784.919,92.699,407.674,405.894,0.0
51999.0,STARLINK-3667,PAYLOAD,2022-05-30 12:00:00,15.52517394,0.000133,53.2173,95.218,120.6617,167.4591,-0.012555,-0.00715837,0.0,0 STARLINK-3667,1 51999U 22025AV  22150.50001157 -.00715837  00000-0 -12555-1 0  9995,2 51999  53.2173  95.2180 0001330 120.6617 167.4591 15.52517394 14157,6787.516,92.753,410.284,408.478,0.0
51999.0,STARLINK-3667,PAYLOAD,2022-05-30 13:51:47,15.53776103,0.0001478,53.2123,94.8596,113.9305,246.1862,-0.0033955999999999,-0.00216125,0.0,0 STARLINK-3667,1 51999U 22025AV  22150.57763098 -.00216125  00000-0 -33956-2 0  9996,2 51999  53.2123  94.8596 0001478 113.9305 246.1862 15.53776103 12655,6783.85,92.677,406.717,404.712,0.0
51999.0,STARLINK-3667,PAYLOAD,2022-05-30 22:00:00,15.51878413,0.0001178,53.2176,93.2185,107.2802,350.45,-0.012788,-0.00712697,0.0,0 STARLINK-3667,1 51999U 22025AV  22150.91667824 -.00712697  00000-0 -12788-1 0  9998,2 51999  53.2176  93.2185 0001178 107.2802 350.4500 15.51878413  1308,6789.379,92.791,412.044,410.444,0.0
51999.0,STARLINK-3667,PAYLOAD,2022-05-31 06:00:02,15.51365115,0.0001281999999999,53.2175,91.6222,105.9106,54.8821,-0.012921,-0.00707401,0.0,0 STARLINK-3667,1 51999U 22025AV  22151.25002315 -.00707401  00000-0 -12921-1 0  9990,2 51999  53.2175  91.6222 0001282 105.9106  54.8821 15.51365115  1300,6790.876,92.821,413.612,411.871,0.0
51999.0,STARLINK-3667,PAYLOAD,2022-05-31 12:00:00,15.50986239,0.0001183,53.2173,90.4234,106.2777,11.2956,-0.013212,-0.00722154,0.0,0 STARLINK-3667,1 51999U 22025AV  22151.50001157 -.00722154  00000-0 -13212-1 0  9997,2 51999  53.2173  90.4234 0001183 106.2777  11.2956 15.50986239 14301,6791.982,92.844,414.651,413.044,0.0
51999.0,STARLINK-3667,PAYLOAD,2022-05-31 19:14:40,15.51573831,0.0004457,53.2122,88.99,90.2833,269.8688,-0.0042943999999999,-0.0025135,0.0,0 STARLINK-3667,1 51999U 22025AV  22151.80186013 -.00251350  00000-0 -42944-2 0  9995,2 51999  53.2122  88.9900 0004457  90.2833 269.8688 15.51573831 14358,6790.267,92.809,415.159,409.106,0.0
51999.0,STARLINK-3667,PAYLOAD,2022-05-31 22:00:00,15.50264481,0.0001329,53.2177,88.4289,104.0746,180.8256,-0.0091725,-0.00496019,0.0,0 STARLINK-3667,1 51999U 22025AV  22151.91667824 -.00496019  00000-0 -91725-2 0  9995,2 51999  53.2177  88.4289 0001329 104.0746 180.8256 15.50264481  1306,6794.09,92.887,416.858,415.052,0.0
51999.0,STARLINK-3667,PAYLOAD,2022-06-01 04:00:00,15.49893251,0.0001302,53.2175,87.2349,99.7351,141.0806,-0.00023512,-0.00013776,0.0,0 STARLINK-3667,1 51999U 22025AV  22152.16667824 -.00013776  00000-0 -23512-3 0  9998,2 51999  53.2175  87.2349 0001302  99.7351 141.0806 15.49893251 14418,6795.175,92.91,417.925,416.155,0.0
51999.0,STARLINK-3667,PAYLOAD,2022-06-01 20:00:01,15.50035884,0.0001172,53.2154,84.0492,113.0582,249.488,-0.0062586,-0.00342396,0.0,0 STARLINK-3667,1 51999U 22025AV  22152.83334491 -.00342396  00000-0 -62586-2 0  9999,2 51999  53.2154  84.0492 0001172 113.0582 249.4880 15.50035884 14518,6794.7580000000025,92.901,417.42,415.827,0.0
51999.0,STARLINK-3667,PAYLOAD,2022-06-03 02:57:53,15.49059988,5.96e-05,53.2143,77.8962,33.8303,326.2744,-0.0023364,-0.00127169,0.0,0 STARLINK-3667,1 51999U 22025AV  22154.12353851 -.00127169  00000-0 -23364-2 0  9994,2 51999  53.2143  77.8962 0000596  33.8303 326.2744 15.49059988 14711,6797.611999999999,92.96,419.882,419.072,0.0
51999.0,STARLINK-3667,PAYLOAD,2022-06-03 04:30:52,15.49001474,0.0001144,53.2149,77.5897,45.0193,315.0909,-0.0024282,-0.00131805,0.0,0 STARLINK-3667,1 51999U 22025AV  22154.18811272 -.00131805  00000-0 -24282-2 0  9998,2 51999  53.2149  77.5897 0001144  45.0193 315.0909 15.49001474 14720,6797.783,92.963,420.426,418.87,0.0
51999.0,STARLINK-3667,PAYLOAD,2022-06-03 20:05:44,15.44039265,0.001403,53.2111,74.5357,66.7945,293.4538,-0.014372,-0.00619329,0.0,0 STARLINK-3667,1 51999U 22025AV  22154.83732263 -.00619329  00000-0 -14372-1 0  9992,2 51999  53.2111  74.5357 0014030  66.7945 293.4538 15.44039265 14822,6812.339,93.262,443.762,424.647,0.0
51999.0,STARLINK-3667,PAYLOAD,2022-06-05 20:00:01,15.44128204,0.0001227,53.2177,65.0005,112.8303,221.6744,-0.016771,-0.00721224,0.0,0 STARLINK-3667,1 51999U 22025AV  22156.83334491 -.00721224  00000-0 -16771-1 0  9998,2 51999  53.2177  65.0005 0001227 112.8303 221.6744 15.44128204 15133,6812.078,93.257,434.779,433.107,0.0
51999.0,STARLINK-3667,PAYLOAD,2022-06-05 22:00:00,15.44000067,0.0001138,53.2175,64.6063,102.7724,335.2107,-0.016831,-0.00720677,0.0,0 STARLINK-3667,1 51999U 22025AV  22156.91667824 -.00720677  00000-0 -16831-1 0  9994,2 51999  53.2175  64.6063 0001138 102.7724 335.2107 15.44000067  1301,6812.455,93.264,435.095,433.545,0.0
51999.0,STARLINK-3667,PAYLOAD,2022-06-06 14:00:01,15.42978791,0.0001356,53.2171,61.4482,112.059,72.3745,-0.0173539999999999,-0.00717972,0.0,0 STARLINK-3667,1 51999U 22025AV  22157.58334491 -.00717972  00000-0 -17354-1 0  9994,2 51999  53.2171  61.4482 0001356 112.0590  72.3745 15.42978791  1307,6815.46,93.326,438.25,436.401,0.0
51999.0,STARLINK-3667,PAYLOAD,2022-06-06 20:00:01,15.4259807,0.0001294,53.2174,60.2664,103.4228,30.2962,-0.017656,-0.00720878,0.0,0 STARLINK-3667,1 51999U 22025AV  22157.83334491 -.00720878  00000-0 -17656-1 0  9996,2 51999  53.2174  60.2664 0001294 103.4228  30.2962 15.42598070 15286,6816.581999999999,93.349,439.329,437.565,0.0
51999.0,STARLINK-3667,PAYLOAD,2022-06-06 22:00:00,15.42468127,0.0001368,53.2173,59.8729,105.8919,130.8467,-0.017627,-0.00716874,0.0,0 STARLINK-3667,1 51999U 22025AV  22157.91667824 -.00716874  00000-0 -17627-1 0  9993,2 51999  53.2173  59.8729 0001368 105.8919 130.8467 15.42468127  1300,6816.965,93.357,439.762,437.897,0.0
51999.0,STARLINK-3667,PAYLOAD,2022-06-07 14:00:01,15.4144725,0.00013,53.2173,56.7221,123.227,216.2853,-0.018202,-0.00715386,0.0,0 STARLINK-3667,1 51999U 22025AV  22158.58334491 -.00715386  00000-0 -18202-1 0  9995,2 51999  53.2173  56.7221 0001300 123.2270 216.2853 15.41447250  1304,6819.974,93.419,442.726,440.953,0.0
51999.0,STARLINK-3667,PAYLOAD,2022-06-07 22:00:00,15.40940231,0.0001138,53.2174,55.1506,105.0732,284.9042,-0.018645,-0.00720072,0.0,0 STARLINK-3667,1 51999U 22025AV  22158.91667824 -.00720072  00000-0 -18645-1 0  9990,2 51999  53.2174  55.1506 0001138 105.0732 284.9042 15.40940231 15453,6821.47,93.449,444.111,442.559,0.0
51999.0,STARLINK-3667,PAYLOAD,2022-06-08 14:00:01,15.39919989,0.0001250999999999,53.2172,52.007,110.5969,18.4774,-0.019286,-0.00719986,0.0,0 STARLINK-3667,1 51999U 22025AV  22159.58334491 -.00719986  00000-0 -19286-1 0  9999,2 51999  53.2172  52.0070 0001251 110.5969  18.4774 15.39919989  1307,6824.483,93.511,447.201,445.494,0.0
51999.0,STARLINK-3667,PAYLOAD,2022-06-08 22:00:01,15.3940811,0.0001323,53.2174,50.43899999999999,95.8896,81.8776,-0.019521,-0.0071677999999999,0.0,0 STARLINK-3667,1 51999U 22025AV  22159.91668981 -.00716780  00000-0 -19521-1 0  9991,2 51999  53.2174  50.4390 0001323  95.8896  81.8776 15.39408110 15603,6825.995,93.542,448.764,446.957,0.0
51999.0,STARLINK-3667,PAYLOAD,2022-06-09 14:00:01,15.38388412,0.0001393,53.2174,47.3025,116.6186,156.5044,-0.020191,-0.00716895,0.0,0 STARLINK-3667,1 51999U 22025AV  22160.58334491 -.00716895  00000-0 -20191-1 0  9994,2 51999  53.2174  47.3025 0001393 116.6186 156.5044 15.38388412  1305,6829.011,93.604,451.828,449.925,0.0
51999.0,STARLINK-3667,PAYLOAD,2022-06-09 22:00:00,15.3787896,0.0001247,53.2175,45.7386,102.4168,217.4953,-0.020547,-0.00717394,0.0,0 STARLINK-3667,1 51999U 22025AV  22160.91667824 -.00717394  00000-0 -20547-1 0  9990,2 51999  53.2175  45.7386 0001247 102.4168 217.4953 15.37878960 15761,6830.52,93.635,453.236,451.533,0.0
51999.0,STARLINK-3667,PAYLOAD,2022-06-10 14:00:01,15.36857801,0.0001152,53.2174,42.6088,107.9645,303.6916,-0.021202,-0.00716111,0.0,0 STARLINK-3667,1 51999U 22025AV  22161.58334491 -.00716111  00000-0 -21202-1 0  9990,2 51999  53.2174  42.6088 0001152 107.9645 303.6916 15.36857801  1302,6833.545,93.698,456.197,454.62300000000016,0.0
51999.0,STARLINK-3667,PAYLOAD,2022-06-10 22:00:00,15.36350143,0.0001197,53.2174,41.0487,89.1487,7.4572,-0.021651,-0.00719095,0.0,0 STARLINK-3667,1 51999U 22025AV  22161.91667824 -.00719095  00000-0 -21651-1 0  9998,2 51999  53.2174  41.0487 0001197  89.1487   7.4572 15.36350143 15918,6835.05,93.729,457.733,456.097,0.0
